CCSDS_OMM_VERS = 2.0
CREATION_DATE  = 
ORIGINATOR     = 

OBJECT_NAME    = 2025-313M
OBJECT_ID      = 2025-313M
CENTER_NAME    = EARTH
REF_FRAME      = TEME
TIME_SYSTEM    = UTC
MEAN_ELEMENT_THEORY = SGP/SGP4

EPOCH          = 2026-01-16T21:35:07.334016
MEAN_MOTION    = 15.20269029
ECCENTRICITY   = .00159642
INCLINATION    = 97.4151
RA_OF_ASC_NODE = 94.0438
ARG_OF_PERICENTER = 168.9599
MEAN_ANOMALY   = 191.1990

EPHEMERIS_TYPE = 0
CLASSIFICATION_TYPE = U
NORAD_CAT_ID   = 67259
ELEMENT_SET_NO = 999
REV_AT_EPOCH   = 294
BSTAR          = .57279565E-3
MEAN_MOTION_DOT = .12418E-3
MEAN_MOTION_DDOT = 0

CCSDS_OMM_VERS = 2.0
CREATION_DATE  = 
ORIGINATOR     = 

OBJECT_NAME    = SITRO-AIS-60
OBJECT_ID      = 2025-313N
CENTER_NAME    = EARTH
REF_FRAME      = TEME
TIME_SYSTEM    = UTC
MEAN_ELEMENT_THEORY = SGP/SGP4

EPOCH          = 2026-01-16T23:12:01.994400
MEAN_MOTION    = 15.20056237
ECCENTRICITY   = .001616
INCLINATION    = 97.4117
RA_OF_ASC_NODE = 94.0867
ARG_OF_PERICENTER = 170.2345
MEAN_ANOMALY   = 189.9207

EPHEMERIS_TYPE = 0
CLASSIFICATION_TYPE = U
NORAD_CAT_ID   = 67260
ELEMENT_SET_NO = 999
REV_AT_EPOCH   = 295
BSTAR          = .35428212E-3
MEAN_MOTION_DOT = .7603E-4
MEAN_MOTION_DDOT = 0

CCSDS_OMM_VERS = 2.0
CREATION_DATE  = 
ORIGINATOR     = 

OBJECT_NAME    = 2025-313P
OBJECT_ID      = 2025-313P
CENTER_NAME    = EARTH
REF_FRAME      = TEME
TIME_SYSTEM    = UTC
MEAN_ELEMENT_THEORY = SGP/SGP4

EPOCH          = 2026-01-16T23:07:41.326464
MEAN_MOTION    = 15.20474364
ECCENTRICITY   = .00157397
INCLINATION    = 97.4152
RA_OF_ASC_NODE = 94.1110
ARG_OF_PERICENTER = 169.2065
MEAN_ANOMALY   = 190.9511

EPHEMERIS_TYPE = 0
CLASSIFICATION_TYPE = U
NORAD_CAT_ID   = 67261
ELEMENT_SET_NO = 999
REV_AT_EPOCH   = 295
BSTAR          = .79916242E-3
MEAN_MOTION_DOT = .17467E-3
MEAN_MOTION_DDOT = 0

CCSDS_OMM_VERS = 2.0
CREATION_DATE  = 
ORIGINATOR     = 

OBJECT_NAME    = 2025-313Q
OBJECT_ID      = 2025-313Q
CENTER_NAME    = EARTH
REF_FRAME      = TEME
TIME_SYSTEM    = UTC
MEAN_ELEMENT_THEORY = SGP/SGP4

EPOCH          = 2026-01-16T23:09:46.329984
MEAN_MOTION    = 15.20247725
ECCENTRICITY   = .00158279
INCLINATION    = 97.4119
RA_OF_ASC_NODE = 94.0894
ARG_OF_PERICENTER = 170.9423
MEAN_ANOMALY   = 189.2101

EPHEMERIS_TYPE = 0
CLASSIFICATION_TYPE = U
NORAD_CAT_ID   = 67262
ELEMENT_SET_NO = 999
REV_AT_EPOCH   = 295
BSTAR          = .50324195E-3
MEAN_MOTION_DOT = .10892E-3
MEAN_MOTION_DDOT = 0

CCSDS_OMM_VERS = 2.0
CREATION_DATE  = 
ORIGINATOR     = 

OBJECT_NAME    = DCS-1
OBJECT_ID      = 2025-313R
CENTER_NAME    = EARTH
REF_FRAME      = TEME
TIME_SYSTEM    = UTC
MEAN_ELEMENT_THEORY = SGP/SGP4

EPOCH          = 2026-01-16T23:10:15.082176
MEAN_MOTION    = 15.20192864
ECCENTRICITY   = .00157901
INCLINATION    = 97.4132
RA_OF_ASC_NODE = 94.1037
ARG_OF_PERICENTER = 169.8740
MEAN_ANOMALY   = 190.2816

EPHEMERIS_TYPE = 0
CLASSIFICATION_TYPE = U
NORAD_CAT_ID   = 67263
ELEMENT_SET_NO = 999
REV_AT_EPOCH   = 295
BSTAR          = .45663763E-3
MEAN_MOTION_DOT = .986E-4
MEAN_MOTION_DDOT = 0

CCSDS_OMM_VERS = 2.0
CREATION_DATE  = 
ORIGINATOR     = 

OBJECT_NAME    = 2025-313S
OBJECT_ID      = 2025-313S
CENTER_NAME    = EARTH
REF_FRAME      = TEME
TIME_SYSTEM    = UTC
MEAN_ELEMENT_THEORY = SGP/SGP4

EPOCH          = 2026-01-16T21:36:45.702144
MEAN_MOTION    = 15.20062415
ECCENTRICITY   = .0015766
INCLINATION    = 97.4202
RA_OF_ASC_NODE = 94.0379
ARG_OF_PERICENTER = 175.0426
MEAN_ANOMALY   = 185.0968

EPHEMERIS_TYPE = 0
CLASSIFICATION_TYPE = U
NORAD_CAT_ID   = 67264
ELEMENT_SET_NO = 999
REV_AT_EPOCH   = 294
BSTAR          = .3097848E-3
MEAN_MOTION_DOT = .6638E-4
MEAN_MOTION_DDOT = 0

CCSDS_OMM_VERS = 2.0
CREATION_DATE  = 
ORIGINATOR     = 

OBJECT_NAME    = SITRO-TD-4
OBJECT_ID      = 2025-313T
CENTER_NAME    = EARTH
REF_FRAME      = TEME
TIME_SYSTEM    = UTC
MEAN_ELEMENT_THEORY = SGP/SGP4

EPOCH          = 2026-01-16T21:34:55.092000
MEAN_MOTION    = 15.20217065
ECCENTRICITY   = .00156963
INCLINATION    = 97.4111
RA_OF_ASC_NODE = 94.0340
ARG_OF_PERICENTER = 170.8830
MEAN_ANOMALY   = 189.2693

EPHEMERIS_TYPE = 0
CLASSIFICATION_TYPE = U
NORAD_CAT_ID   = 67265
ELEMENT_SET_NO = 999
REV_AT_EPOCH   = 294
BSTAR          = .44065491E-3
MEAN_MOTION_DOT = .9518E-4
MEAN_MOTION_DDOT = 0

CCSDS_OMM_VERS = 2.0
CREATION_DATE  = 
ORIGINATOR     = 

OBJECT_NAME    = SITRO-AIS-65
OBJECT_ID      = 2025-313U
CENTER_NAME    = EARTH
REF_FRAME      = TEME
TIME_SYSTEM    = UTC
MEAN_ELEMENT_THEORY = SGP/SGP4

EPOCH          = 2026-01-16T23:09:36.242784
MEAN_MOTION    = 15.20225550
ECCENTRICITY   = .00156472
INCLINATION    = 97.4139
RA_OF_ASC_NODE = 94.1050
ARG_OF_PERICENTER = 169.4105
MEAN_ANOMALY   = 190.7463

EPHEMERIS_TYPE = 0
CLASSIFICATION_TYPE = U
NORAD_CAT_ID   = 67266
ELEMENT_SET_NO = 999
REV_AT_EPOCH   = 295
BSTAR          = .41475104E-3
MEAN_MOTION_DOT = .8956E-4
MEAN_MOTION_DDOT = 0

CCSDS_OMM_VERS = 2.0
CREATION_DATE  = 
ORIGINATOR     = 

OBJECT_NAME    = 2025-313V
OBJECT_ID      = 2025-313V
CENTER_NAME    = EARTH
REF_FRAME      = TEME
TIME_SYSTEM    = UTC
MEAN_ELEMENT_THEORY = SGP/SGP4

EPOCH          = 2026-01-16T23:08:52.918368
MEAN_MOTION    = 15.20292136
ECCENTRICITY   = .00148479
INCLINATION    = 97.4121
RA_OF_ASC_NODE = 94.0927
ARG_OF_PERICENTER = 174.9338
MEAN_ANOMALY   = 185.2050

EPHEMERIS_TYPE = 0
CLASSIFICATION_TYPE = U
NORAD_CAT_ID   = 67267
ELEMENT_SET_NO = 999
REV_AT_EPOCH   = 295
BSTAR          = .53217754E-3
MEAN_MOTION_DOT = .11533E-3
MEAN_MOTION_DDOT = 0

CCSDS_OMM_VERS = 2.0
CREATION_DATE  = 
ORIGINATOR     = 

OBJECT_NAME    = ZORKY-2M 7
OBJECT_ID      = 2025-313W
CENTER_NAME    = EARTH
REF_FRAME      = TEME
TIME_SYSTEM    = UTC
MEAN_ELEMENT_THEORY = SGP/SGP4

EPOCH          = 2026-01-16T23:10:02.114400
MEAN_MOTION    = 15.20177729
ECCENTRICITY   = .00157993
INCLINATION    = 97.4121
RA_OF_ASC_NODE = 94.0901
ARG_OF_PERICENTER = 170.1358
MEAN_ANOMALY   = 190.0190

EPHEMERIS_TYPE = 0
CLASSIFICATION_TYPE = U
NORAD_CAT_ID   = 67268
ELEMENT_SET_NO = 999
REV_AT_EPOCH   = 295
BSTAR          = .40629249E-3
MEAN_MOTION_DOT = .876E-4
MEAN_MOTION_DDOT = 0

CCSDS_OMM_VERS = 2.0
CREATION_DATE  = 
ORIGINATOR     = 

OBJECT_NAME    = 2025-313X
OBJECT_ID      = 2025-313X
CENTER_NAME    = EARTH
REF_FRAME      = TEME
TIME_SYSTEM    = UTC
MEAN_ELEMENT_THEORY = SGP/SGP4

EPOCH          = 2026-01-16T23:08:13.342848
MEAN_MOTION    = 15.20373571
ECCENTRICITY   = .00156006
INCLINATION    = 97.4147
RA_OF_ASC_NODE = 94.1080
ARG_OF_PERICENTER = 168.8297
MEAN_ANOMALY   = 191.3288

EPHEMERIS_TYPE = 0
CLASSIFICATION_TYPE = U
NORAD_CAT_ID   = 67269
ELEMENT_SET_NO = 999
REV_AT_EPOCH   = 295
BSTAR          = .63441104E-3
MEAN_MOTION_DOT = .13803E-3
MEAN_MOTION_DDOT = 0

CCSDS_OMM_VERS = 2.0
CREATION_DATE  = 
ORIGINATOR     = 

OBJECT_NAME    = SITRO-TD-3
OBJECT_ID      = 2025-313Y
CENTER_NAME    = EARTH
REF_FRAME      = TEME
TIME_SYSTEM    = UTC
MEAN_ELEMENT_THEORY = SGP/SGP4

EPOCH          = 2026-01-16T21:35:21.321312
MEAN_MOTION    = 15.20199813
ECCENTRICITY   = .00157345
INCLINATION    = 97.4121
RA_OF_ASC_NODE = 94.0358
ARG_OF_PERICENTER = 170.5789
MEAN_ANOMALY   = 189.5745

EPHEMERIS_TYPE = 0
CLASSIFICATION_TYPE = U
NORAD_CAT_ID   = 67270
ELEMENT_SET_NO = 999
REV_AT_EPOCH   = 294
BSTAR          = .46495146E-3
MEAN_MOTION_DOT = .10042E-3
MEAN_MOTION_DDOT = 0

