2025-313M               
1 67259U 25313M   26016.89939044  .00012418  00000+0  57280-3 0  9994
2 67259  97.4151  94.0438 0015964 168.9599 191.1990 15.20269029  2949
SITRO-AIS-60            
1 67260U 25313N   26016.96668975  .00007603  00000+0  35428-3 0  9996
2 67260  97.4117  94.0867 0016160 170.2345 189.9207 15.20056237  2955
2025-313P               
1 67261U 25313P   26016.96367276  .00017467  00000+0  79916-3 0  9996
2 67261  97.4152  94.1110 0015739 169.2065 190.9511 15.20474364  2950
2025-313Q               
1 67262U 25313Q   26016.96511956  .00010892  00000+0  50324-3 0  9990
2 67262  97.4119  94.0894 0015827 170.9423 189.2101 15.20247725  2952
DCS-1                   
1 67263U 25313R   26016.96545234  .00009860  00000+0  45664-3 0  9991
2 67263  97.4132  94.1037 0015790 169.8740 190.2816 15.20192864  2954
2025-313S               
1 67264U 25313S   26016.90052896  .00006638  00000+0  30978-3 0  9995
2 67264  97.4202  94.0379 0015766 175.0426 185.0968 15.20062415  2941
SITRO-TD-4              
1 67265U 25313T   26016.89924875  .00009518  00000+0  44065-3 0  9991
2 67265  97.4111  94.0340 0015696 170.8830 189.2693 15.20217065  2947
SITRO-AIS-65            
1 67266U 25313U   26016.96500281  .00008956  00000+0  41475-3 0  9998
2 67266  97.4139  94.1050 0015647 169.4105 190.7463 15.20225550  2953
2025-313V               
1 67267U 25313V   26016.96450137  .00011533  00000+0  53218-3 0  9996
2 67267  97.4121  94.0927 0014847 174.9338 185.2050 15.20292136  2952
ZORKY-2M 7              
1 67268U 25313W   26016.96530225  .00008760  00000+0  40629-3 0  9994
2 67268  97.4121  94.0901 0015799 170.1358 190.0190 15.20177729  2951
2025-313X               
1 67269U 25313X   26016.96404332  .00013803  00000+0  63441-3 0  9995
2 67269  97.4147  94.1080 0015600 168.8297 191.3288 15.20373571  2951
SITRO-TD-3              
1 67270U 25313Y   26016.89955233  .00010042  00000+0  46495-3 0  9992
2 67270  97.4121  94.0358 0015734 170.5789 189.5745 15.20199813  2947
